EUTELSAT 8 WEST B       
1 40875U 15039B   25268.36025507 -.00000063  00000+0  00000+0 0  9991
2 40875   0.0679 352.1950 0003741 195.9195 298.0414  1.00272682 37003
EUTELSAT 9B             
1 41310U 16005A   25268.86322341  .00000065  00000+0  00000+0 0  9992
2 41310   0.0567  66.7062 0002417 154.9923 102.9800  1.00272763 35469
EUTELSAT 65 WEST A      
1 41382U 16014A   25268.91990367 -.00000273  00000+0  00000+0 0  9998
2 41382   0.0555  12.6017 0002149 165.0205  93.3276  1.00274324 34883
EUTELSAT 117 WEST B     
1 41589U 16038B   25268.69554350 -.00000008  00000+0  00000+0 0  9992
2 41589   0.0217 335.1271 0000196 209.4814 313.5596  1.00267217 34011
EUTELSAT 172B           
1 42741U 17029B   25268.89555023 -.00000002  00000+0  00000+0 0  9998
2 42741   0.0180 163.2207 0000288 287.1216  49.0203  1.00272608 31081
EUTELSAT 7C             
1 44334U 19034B   25268.86279008  .00000052  00000+0  00000+0 0  9993
2 44334   0.0692 185.5601 0003366 339.8788 157.0993  1.00274099  4186
EUTELSAT 5 WEST B       
1 44624U 19067A   25268.86045007 -.00000039  00000+0  00000+0 0  9997
2 44624   0.0693 343.4683 0003071 200.7889 125.4365  1.00271866 21781
EUTELSAT KONNECT        
1 45027U 20005B   25268.86287675  .00000054  00000+0  00000+0 0  9994
2 45027   0.0639  98.2747 0001913  66.0961 158.3957  1.00274265 21678
